CSS (TIANHE)            
1 48274U 21035A   24160.91654811  .00023302  00000+0  26689-3 0  9997
2 48274  41.4676 133.5240 0002456 197.0733 163.0024 15.61559939177802
